{
 "type": "FeatureCollection",
 "features": [
  {
   "type": "Feature",
   "geometry": {
    "type": "Polygon",
    "coordinates": [
     [
      [
       224.0,
       -277.0
      ],
      [
       376.0,
       -277.0
      ],
      [
       376.0,
       -323.0
      ],
      [
       224.0,
       -323.0
      ],
      [
       224.0,
       -277.0
      ]
     ]
    ]
   },
   "properties": {
    "text": "Diambour",
    "score": 0.98
   }
  },
  {
   "type": "Feature",
   "geometry": {
    "type": "Polygon",
    "coordinates": [
     [
      [
       889.0,
       -277.0
      ],
      [
       1111.0,
       -277.0
      ],
      [
       1111.0,
       -323.0
      ],
      [
       889.0,
       -323.0
      ],
      [
       889.0,
       -277.0
      ]
     ]
    ]
   },
   "properties": {
    "text": "Champ de Mars",
    "score": 0.99
   }
  },
  {
   "type": "Feature",
   "geometry": {
    "type": "Polygon",
    "coordinates": [
     [
      [
       1617.0,
       -277.0
      ],
      [
       1783.0,
       -277.0
      ],
      [
       1783.0,
       -323.0
      ],
      [
       1617.0,
       -323.0
      ],
      [
       1617.0,
       -277.0
      ]
     ]
    ]
   },
   "properties": {
    "text": "Trocadero",
    "score": 0.96
   }
  },
  {
   "type": "Feature",
   "geometry": {
    "type": "Polygon",
    "coordinates": [
     [
      [
       2303.0,
       -277.0
      ],
      [
       2497.0,
       -277.0
      ],
      [
       2497.0,
       -323.0
      ],
      [
       2303.0,
       -323.0
      ],
      [
       2303.0,
       -277.0
      ]
     ]
    ]
   },
   "properties": {
    "text": "Pont d'Iena",
    "score": 0.93
   }
  },
  {
   "type": "Feature",
   "geometry": {
    "type": "Polygon",
    "coordinates": [
     [
      [
       3017.0,
       -277.0
      ],
      [
       3183.0,
       -277.0
      ],
      [
       3183.0,
       -323.0
      ],
      [
       3017.0,
       -323.0
      ],
      [
       3017.0,
       -277.0
      ]
     ]
    ]
   },
   "properties": {
    "text": "Esplanade",
    "score": 0.91
   }
  },
  {
   "type": "Feature",
   "geometry": {
    "type": "Polygon",
    "coordinates": [
     [
      [
       3738.0,
       -277.0
      ],
      [
       3862.0,
       -277.0
      ],
      [
       3862.0,
       -323.0
      ],
      [
       3738.0,
       -323.0
      ],
      [
       3738.0,
       -277.0
      ]
     ]
    ]
   },
   "properties": {
    "text": "Palais",
    "score": 0.95
   }
  },
  {
   "type": "Feature",
   "geometry": {
    "type": "Polygon",
    "coordinates": [
     [
      [
       238.0,
       -1177.0
      ],
      [
       362.0,
       -1177.0
      ],
      [
       362.0,
       -1223.0
      ],
      [
       238.0,
       -1223.0
      ],
      [
       238.0,
       -1177.0
      ]
     ]
    ]
   },
   "properties": {
    "text": "Avenue",
    "score": 0.88
   }
  },
  {
   "type": "Feature",
   "geometry": {
    "type": "Polygon",
    "coordinates": [
     [
      [
       945.0,
       -1177.0
      ],
      [
       1055.0,
       -1177.0
      ],
      [
       1055.0,
       -1223.0
      ],
      [
       945.0,
       -1223.0
      ],
      [
       945.0,
       -1177.0
      ]
     ]
    ]
   },
   "properties": {
    "text": "Seine",
    "score": 0.97
   }
  },
  {
   "type": "Feature",
   "geometry": {
    "type": "Polygon",
    "coordinates": [
     [
      [
       1652.0,
       -1177.0
      ],
      [
       1748.0,
       -1177.0
      ],
      [
       1748.0,
       -1223.0
      ],
      [
       1652.0,
       -1223.0
      ],
      [
       1652.0,
       -1177.0
      ]
     ]
    ]
   },
   "properties": {
    "text": "Quai",
    "score": 0.82
   }
  },
  {
   "type": "Feature",
   "geometry": {
    "type": "Polygon",
    "coordinates": [
     [
      [
       2338.0,
       -1177.0
      ],
      [
       2462.0,
       -1177.0
      ],
      [
       2462.0,
       -1223.0
      ],
      [
       2338.0,
       -1223.0
      ],
      [
       2338.0,
       -1177.0
      ]
     ]
    ]
   },
   "properties": {
    "text": "Jardin",
    "score": 0.94
   }
  },
  {
   "type": "Feature",
   "geometry": {
    "type": "Polygon",
    "coordinates": [
     [
      [
       2968.0,
       -1177.0
      ],
      [
       3232.0,
       -1177.0
      ],
      [
       3232.0,
       -1223.0
      ],
      [
       2968.0,
       -1223.0
      ],
      [
       2968.0,
       -1177.0
      ]
     ]
    ]
   },
   "properties": {
    "text": "Illegible smudge",
    "score": 0.31
   }
  },
  {
   "type": "Feature",
   "geometry": {
    "type": "Polygon",
    "coordinates": [
     [
      [
       3759.0,
       -1177.0
      ],
      [
       3841.0,
       -1177.0
      ],
      [
       3841.0,
       -1223.0
      ],
      [
       3759.0,
       -1223.0
      ],
      [
       3759.0,
       -1177.0
      ]
     ]
    ]
   },
   "properties": {
    "text": "Rue",
    "score": 0.64
   }
  }
 ]
}